NORAD_CAT_ID,OBJECT_NAME,OBJECT_TYPE,EPOCH,MEAN_MOTION,ECCENTRICITY,INCLINATION,RA_OF_ASC_NODE,ARG_OF_PERICENTER,MEAN_ANOMALY,BSTAR,MEAN_MOTION_DOT,MEAN_MOTION_DDOT,TLE_LINE0,TLE_LINE1,TLE_LINE2,SEMIMAJOR_AXIS,PERIOD,APOGEE,PERIGEE,DECAYED
51997.0,STARLINK-3589,PAYLOAD,2023-05-20 19:11:22,15.0885929,0.0001032,53.2148,295.5429,90.3496,269.7614,0.00040616,6.185e-05,0.0,0 STARLINK-3589,1 51997U 22025AT  23140.79957018  .00006185  00000-0  40616-3 0  9998,2 51997  53.2148 295.5429 0001032  90.3496 269.7614 15.08859290 66339,6917.821,95.436,540.4,538.973,0.0
51997.0,STARLINK-3589,PAYLOAD,2023-05-21 09:29:51,15.0884493,0.0002077,53.2148,292.8675,76.2367,283.8856,0.00015084,2.114e-05,0.0,0 STARLINK-3589,1 51997U 22025AT  23141.39573832  .00002114  00000-0  15084-3 0  9992,2 51997  53.2148 292.8675 0002077  76.2367 283.8856 15.08844930 67940,6917.865,95.437,541.167,538.293,0.0
51997.0,STARLINK-3589,PAYLOAD,2023-05-21 12:40:38,15.0882563,0.000112,53.2152,292.2715,71.7994,288.312,-0.00030692,-5.167e-05,0.0,0 STARLINK-3589,1 51997U 22025AT  23141.52822213 -.00005167  00000-0 -30692-3 0  9992,2 51997  53.2152 292.2715 0001120  71.7994 288.3120 15.08825630 66442,6917.924,95.438,540.564,539.015,0.0
51997.0,STARLINK-3589,PAYLOAD,2023-05-21 19:02:10,15.08832641,0.0001042,53.2152,291.0821,71.583,288.5275,-5.1212e-05,-1.103e-05,0.0,0 STARLINK-3589,1 51997U 22025AT  23141.79318205 -.00001103  00000-0 -51212-4 0  9990,2 51997  53.2152 291.0821 0001042  71.5830 288.5275 15.08832641 68004,6917.903,95.438,540.489,539.047,0.0
51997.0,STARLINK-3589,PAYLOAD,2023-05-22 12:31:25,15.08848476,0.0001005,53.2151,287.8114,67.2337,292.8761,0.0012054,0.00018952,0.0,0 STARLINK-3589,1 51997U 22025AT  23142.52182551  .00018952  00000-0  12054-2 0  9992,2 51997  53.2151 287.8114 0001005  67.2337 292.8761 15.08848476 66597,6917.854,95.437,540.415,539.024,0.0
51997.0,STARLINK-3589,PAYLOAD,2023-05-22 15:42:11,15.08853641,0.0001027,53.215,287.217,64.5758,295.5341,0.0013114,0.00020652,0.0,0 STARLINK-3589,1 51997U 22025AT  23142.65430455  .00020652  00000-0  13114-2 0  9993,2 51997  53.2150 287.2170 0001027  64.5758 295.5341 15.08853641 68139,6917.839,95.437,540.414,538.993,0.0
51997.0,STARLINK-3589,PAYLOAD,2023-05-23 09:11:27,15.08827247,0.0001049,53.2148,283.9458,79.2778,280.8332,0.0010015,0.00015681,0.0,0 STARLINK-3589,1 51997U 22025AT  23143.38295738  .00015681  00000-0  10015-2 0  9990,2 51997  53.2148 283.9458 0001049  79.2778 280.8332 15.08827247 68249,6917.919,95.438,540.51,539.059,0.0
51997.0,STARLINK-3589,PAYLOAD,2023-05-23 15:33:00,15.08834367,0.0001566,53.2153,282.7549,57.2653,302.849,0.00093997,0.00014701,0.0,0 STARLINK-3589,1 51997U 22025AT  23143.64792331  .00014701  00000-0  93997-3 0  9993,2 51997  53.2153 282.7549 0001566  57.2653 302.8490 15.08834367 66761,6917.898,95.438,540.846,538.679,0.0
51997.0,STARLINK-3589,PAYLOAD,2023-05-24 15:23:46,15.08871358,0.0001282,53.2152,278.2927,102.1547,257.9589,0.0013198,0.00020797,0.0,0 STARLINK-3589,1 51997U 22025AT  23144.64151250  .00020797  00000-0  13198-2 0  9999,2 51997  53.2152 278.2927 0001282 102.1547 257.9589 15.08871358 68433,6917.785,95.436,540.536,538.763,0.0
51997.0,STARLINK-3589,PAYLOAD,2023-05-26 13:29:57,15.08844443,0.0001195,53.215,269.6733,85.2543,274.8585,0.00018252,2.618e-05,0.0,0 STARLINK-3589,1 51997U 22025AT  23146.56246757  .00002618  00000-0  18252-3 0  9998,2 51997  53.2150 269.6733 0001195  85.2543 274.8585 15.08844443 67203,6917.867,95.437,540.558,538.905,0.0
51997.0,STARLINK-3589,PAYLOAD,2023-05-26 15:05:20,15.08844221,0.0001271,53.2151,269.3744,100.6435,259.47,4.7754e-05,4.72e-06,0.0,0 STARLINK-3589,1 51997U 22025AT  23146.62870648  .00000472  00000-0  47754-4 0  9993,2 51997  53.2151 269.3744 0001271 100.6435 259.4700 15.08844221 68731,6917.867,95.437,540.612,538.853,0.0
51997.0,STARLINK-3589,PAYLOAD,2023-05-26 19:51:29,15.08852399,0.000118,53.215,268.4825,98.5157,261.5969,-1.0715e-05,-4.58e-06,0.0,0 STARLINK-3589,1 51997U 22025AT  23146.82742169 -.00000458  00000-0 -10715-4 0  9994,2 51997  53.2150 268.4825 0001180  98.5157 261.5969 15.08852399 67246,6917.842,95.437,540.524,538.891,0.0
51997.0,STARLINK-3589,PAYLOAD,2023-05-27 00:37:39,15.08835391,0.0001221,53.2151,267.5903,100.922,259.191,-0.00011538,-2.123e-05,0.0,0 STARLINK-3589,1 51997U 22025AT  23147.02614997 -.00002123  00000-0 -11538-3 0  9998,2 51997  53.2151 267.5903 0001221 100.9220 259.1910 15.08835391 68792,6917.894,95.438,540.604,538.915,0.0
51997.0,STARLINK-3589,PAYLOAD,2023-05-27 14:56:07,15.08841338,0.0001073,53.2162,264.9151,91.982,268.1295,8.65e-05,1.089e-05,0.0,0 STARLINK-3589,1 51997U 22025AT  23147.62230895  .00001089  00000-0  86500-4 0  9995,2 51997  53.2162 264.9151 0001073  91.9820 268.1295 15.08841338 67366,6917.876,95.437,540.484,538.999,0.0
51997.0,STARLINK-3589,PAYLOAD,2023-05-28 14:46:54,15.08846488,0.0001071,53.215,260.4546,93.9675,266.144,0.00015344,2.155e-05,0.0,0 STARLINK-3589,1 51997U 22025AT  23148.61590535  .00002155  00000-0  15344-3 0  9997,2 51997  53.2150 260.4546 0001071  93.9675 266.1440 15.08846488 67518,6917.861,95.437,540.466,538.985,0.0
51997.0,STARLINK-3589,PAYLOAD,2023-05-29 00:19:12,15.08847971,0.0001047,53.2153,258.6704,93.1045,267.0067,0.0001603,2.265e-05,0.0,0 STARLINK-3589,1 51997U 22025AT  23149.01334405  .00002265  00000-0  16030-3 0  9999,2 51997  53.2153 258.6704 0001047  93.1045 267.0067 15.08847971 69090,6917.856,95.437,540.445,538.997,0.0
51997.0,STARLINK-3589,PAYLOAD,2023-05-29 06:40:46,15.08836786,0.0001129,53.2147,257.4822,94.2838,265.8283,0.00030675,4.597e-05,0.0,0 STARLINK-3589,1 51997U 22025AT  23149.27831093  .00004597  00000-0  30675-3 0  9993,2 51997  53.2147 257.4822 0001129  94.2838 265.8283 15.08836786 69137,6917.89,95.438,540.536,538.974,0.0
51997.0,STARLINK-3589,PAYLOAD,2023-05-29 14:37:41,15.08842202,0.0001083,53.215,255.9948,88.293,271.8186,8.4311e-05,1.054e-05,0.0,0 STARLINK-3589,1 51997U 22025AT  23149.60950689  .00001054  00000-0  84311-4 0  9995,2 51997  53.2150 255.9948 0001083  88.2930 271.8186 15.08842202 67663,6917.874,95.437,540.488,538.989,0.0
51997.0,STARLINK-3589,PAYLOAD,2023-05-30 11:17:42,15.08838229,0.0001168,53.2151,252.1293,82.0248,278.0877,-2.4102e-05,-6.71e-06,0.0,0 STARLINK-3589,1 51997U 22025AT  23150.47063003 -.00000671  00000-0 -24102-4 0  9995,2 51997  53.2151 252.1293 0001168  82.0248 278.0877 15.08838229 67798,6917.886,95.438,540.559,538.943,0.0
51997.0,STARLINK-3589,PAYLOAD,2023-05-30 16:03:51,15.08844763,0.0001176,53.216,251.2371,83.1402,276.9724,4.8521e-05,4.85e-06,0.0,0 STARLINK-3589,1 51997U 22025AT  23150.66934834  .00000485  00000-0  48521-4 0  9997,2 51997  53.2160 251.2371 0001176  83.1402 276.9724 15.08844763 69349,6917.866,95.437,540.544,538.917,0.0
51997.0,STARLINK-3589,PAYLOAD,2023-05-31 12:43:52,15.08847094,0.0001193,53.2161,247.3703,83.6709,276.4419,0.00011926,1.611e-05,0.0,0 STARLINK-3589,1 51997U 22025AT  23151.53046411  .00001611  00000-0  11926-3 0  9999,2 51997  53.2161 247.3703 0001193  83.6709 276.4419 15.08847094 67950,6917.859,95.437,540.549,538.898,0.0
51997.0,STARLINK-3589,PAYLOAD,2023-05-31 23:51:34,15.0884371,0.0001179,53.2162,245.2888,82.5552,277.5574,0.00010806,1.433e-05,0.0,0 STARLINK-3589,1 51997U 22025AT  23151.99414556  .00001433  00000-0  10806-3 0  9996,2 51997  53.2162 245.2888 0001179  82.5552 277.5574 15.08843710 69542,6917.869,95.437,540.55,538.918,0.0
51997.0,STARLINK-3589,PAYLOAD,2023-06-01 10:59:16,15.08835668,0.0001121,53.2164,243.209,76.4383,283.6734,7.3194e-05,8.77e-06,0.0,0 STARLINK-3589,1 51997U 22025AT  23152.45783140  .00000877  00000-0  73194-4 0  9997,2 51997  53.2164 243.2090 0001121  76.4383 283.6734 15.08835668 68096,6917.894,95.438,540.534,538.983,0.0
51997.0,STARLINK-3589,PAYLOAD,2023-06-02 12:25:26,15.0883885,0.0001163,53.2156,238.4481,109.2303,250.8815,-3.182e-05,-7.94e-06,0.0,0 STARLINK-3589,1 51997U 22025AT  23153.51767235 -.00000794  00000-0 -31820-4 0  9992,2 51997  53.2156 238.4481 0001163 109.2303 250.8815 15.08838850 68250,6917.884,95.438,540.553,538.944,0.0
51997.0,STARLINK-3589,PAYLOAD,2023-06-03 12:16:13,15.08838807,0.0001081,53.2156,233.9884,93.6874,266.4242,5.7057e-05,6.2e-06,0.0,0 STARLINK-3589,1 51997U 22025AT  23154.51127210  .00000620  00000-0  57057-4 0  9992,2 51997  53.2156 233.9884 0001081  93.6874 266.4242 15.08838807 68401,6917.884,95.438,540.497,539.001,0.0
51997.0,STARLINK-3589,PAYLOAD,2023-06-03 21:48:32,15.08835754,0.0001074,53.2154,232.2036,98.3461,261.7653,6.4119e-05,7.33e-06,0.0,0 STARLINK-3589,1 51997U 22025AT  23154.90871442  .00000733  00000-0  64119-4 0  9990,2 51997  53.2154 232.2036 0001074  98.3461 261.7653 15.08835754 69982,6917.893,95.438,540.501,539.015,0.0
51997.0,STARLINK-3589,PAYLOAD,2023-06-04 13:42:24,15.08838146,0.0001073,53.2157,229.2302,95.0253,265.0862,7.9674e-05,9.8e-06,0.0,0 STARLINK-3589,1 51997U 22025AT  23155.57111457  .00000980  00000-0  79674-4 0  9993,2 51997  53.2157 229.2302 0001073  95.0253 265.0862 15.08838146 68569,6917.886,95.438,540.493,539.009,0.0
51997.0,STARLINK-3589,PAYLOAD,2023-06-04 21:39:20,15.08835861,0.0001161,53.2165,227.7437,90.1971,269.9155,5.4207e-05,5.75e-06,0.0,0 STARLINK-3589,1 51997U 22025AT  23155.90231780  .00000575  00000-0  54207-4 0  9997,2 51997  53.2165 227.7437 0001161  90.1971 269.9155 15.08835861 68616,6917.893,95.438,540.561,538.955,0.0
51997.0,STARLINK-3589,PAYLOAD,2023-06-05 04:00:52,15.08835978,0.0001179,53.2164,226.5553,95.4972,264.6155,3.3444e-05,2.44e-06,0.0,0 STARLINK-3589,1 51997U 22025AT  23156.16727903  .00000244  00000-0  33444-4 0  9996,2 51997  53.2164 226.5553 0001179  95.4972 264.6155 15.08835978 70174,6917.893,95.438,540.573,538.942,0.0
51997.0,STARLINK-3589,PAYLOAD,2023-06-05 13:33:12,15.08811172,0.0001332,53.2168,224.771,101.614,258.5002,0.00034207,5.156e-05,0.0,0 STARLINK-3589,1 51997U 22025AT  23156.56472557  .00005156  00000-0  34207-3 0  9996,2 51997  53.2168 224.7710 0001332 101.6140 258.5002 15.08811172 68711,6917.969,95.439,540.755,538.912,0.0
